ORBCOMM FM33            
1 25983U 99065D   24310.41164495  .00005248  00000+0  17353-2 0  9999
2 25983  45.0291 341.9902 0008482 359.5476   0.5364 14.38806832303893
ORBCOMM FM36            
1 25984U 99065E   24309.38562500  .00007931  00000+0  27034-2 0  9991
2 25984  45.0392  75.3154 0004910 239.6222 120.4141 14.36852113302077
ORBCOMM FM35            
1 25985U 99065F   24310.40132825  .00005807  00000+0  20231-2 0  9992
2 25985  45.0390  73.9313 0002445 329.7811  30.2895 14.36100663302792
ORBCOMM FM34            
1 25986U 99065G   24309.67750690  .00005604  00000+0  19533-2 0  9994
2 25986  45.0379  77.8927 0004200 276.0957  83.9412 14.36117659302614
ORBCOMM FM38            
1 33060U 08031A   24310.20968578  .00008172  00000+0  11111-2 0  9993
2 33060  48.4410 301.2300 0004873 155.7052 204.4093 14.79375445881559
ORBCOMM FM41            
1 33061U 08031B   24310.10166282  .00007077  00000+0  97392-3 0  9994
2 33061  48.4438 308.8064 0003980 139.2614 296.8880 14.79037473881486
ORBCOMM FM29            
1 33062U 08031C   24310.37694608  .00008427  00000+0  11535-2 0  9996
2 33062  48.4394 315.5092 0005711 139.8559 359.1483 14.79053457881383
ORBCOMM FM39            
1 33063U 08031D   24310.44851847  .00006892  00000+0  97614-3 0  9992
2 33063  48.4405 337.1640 0006523 113.4846 246.6755 14.77841050881109
