<?xml version="1.0" encoding="UTF-8"?>
<ndm xmlns:xsi="http://www.w3.org/2001/XMLSchema-instance" xsi:noNamespaceSchemaLocation="https://sanaregistry.org/r/ndmxml_unqualified/ndmxml-2.0.0-master-2.0.xsd">
<omm id="CCSDS_OMM_VERS" version="2.0">
<header><CREATION_DATE/><ORIGINATOR/></header><body><segment><metadata><OBJECT_NAME>ORBCOMM FM33</OBJECT_NAME><OBJECT_ID>1999-065D</OBJECT_ID><CENTER_NAME>EARTH</CENTER_NAME><REF_FRAME>TEME</REF_FRAME><TIME_SYSTEM>UTC</TIME_SYSTEM><MEAN_ELEMENT_THEORY>SGP4</MEAN_ELEMENT_THEORY></metadata><data><meanElements><EPOCH>2024-11-05T09:52:46.123680</EPOCH><MEAN_MOTION>14.38806832</MEAN_MOTION><ECCENTRICITY>.0008482</ECCENTRICITY><INCLINATION>45.0291</INCLINATION><RA_OF_ASC_NODE>341.9902</RA_OF_ASC_NODE><ARG_OF_PERICENTER>359.5476</ARG_OF_PERICENTER><MEAN_ANOMALY>0.5364</MEAN_ANOMALY></meanElements><tleParameters><EPHEMERIS_TYPE>0</EPHEMERIS_TYPE><CLASSIFICATION_TYPE>U</CLASSIFICATION_TYPE><NORAD_CAT_ID>25983</NORAD_CAT_ID><ELEMENT_SET_NO>999</ELEMENT_SET_NO><REV_AT_EPOCH>30389</REV_AT_EPOCH><BSTAR>.17353E-2</BSTAR><MEAN_MOTION_DOT>.5248E-4</MEAN_MOTION_DOT><MEAN_MOTION_DDOT>0</MEAN_MOTION_DDOT></tleParameters></data></segment></body></omm>
<omm id="CCSDS_OMM_VERS" version="2.0">
<header><CREATION_DATE/><ORIGINATOR/></header><body><segment><metadata><OBJECT_NAME>ORBCOMM FM36</OBJECT_NAME><OBJECT_ID>1999-065E</OBJECT_ID><CENTER_NAME>EARTH</CENTER_NAME><REF_FRAME>TEME</REF_FRAME><TIME_SYSTEM>UTC</TIME_SYSTEM><MEAN_ELEMENT_THEORY>SGP4</MEAN_ELEMENT_THEORY></metadata><data><meanElements><EPOCH>2024-11-04T09:15:18.000000</EPOCH><MEAN_MOTION>14.36852113</MEAN_MOTION><ECCENTRICITY>.000491</ECCENTRICITY><INCLINATION>45.0392</INCLINATION><RA_OF_ASC_NODE>75.3154</RA_OF_ASC_NODE><ARG_OF_PERICENTER>239.6222</ARG_OF_PERICENTER><MEAN_ANOMALY>120.4141</MEAN_ANOMALY></meanElements><tleParameters><EPHEMERIS_TYPE>0</EPHEMERIS_TYPE><CLASSIFICATION_TYPE>U</CLASSIFICATION_TYPE><NORAD_CAT_ID>25984</NORAD_CAT_ID><ELEMENT_SET_NO>999</ELEMENT_SET_NO><REV_AT_EPOCH>30207</REV_AT_EPOCH><BSTAR>.27034E-2</BSTAR><MEAN_MOTION_DOT>.7931E-4</MEAN_MOTION_DOT><MEAN_MOTION_DDOT>0</MEAN_MOTION_DDOT></tleParameters></data></segment></body></omm>
<omm id="CCSDS_OMM_VERS" version="2.0">
<header><CREATION_DATE/><ORIGINATOR/></header><body><segment><metadata><OBJECT_NAME>ORBCOMM FM35</OBJECT_NAME><OBJECT_ID>1999-065F</OBJECT_ID><CENTER_NAME>EARTH</CENTER_NAME><REF_FRAME>TEME</REF_FRAME><TIME_SYSTEM>UTC</TIME_SYSTEM><MEAN_ELEMENT_THEORY>SGP4</MEAN_ELEMENT_THEORY></metadata><data><meanElements><EPOCH>2024-11-05T09:37:54.760800</EPOCH><MEAN_MOTION>14.36100663</MEAN_MOTION><ECCENTRICITY>.0002445</ECCENTRICITY><INCLINATION>45.0390</INCLINATION><RA_OF_ASC_NODE>73.9313</RA_OF_ASC_NODE><ARG_OF_PERICENTER>329.7811</ARG_OF_PERICENTER><MEAN_ANOMALY>30.2895</MEAN_ANOMALY></meanElements><tleParameters><EPHEMERIS_TYPE>0</EPHEMERIS_TYPE><CLASSIFICATION_TYPE>U</CLASSIFICATION_TYPE><NORAD_CAT_ID>25985</NORAD_CAT_ID><ELEMENT_SET_NO>999</ELEMENT_SET_NO><REV_AT_EPOCH>30279</REV_AT_EPOCH><BSTAR>.20231E-2</BSTAR><MEAN_MOTION_DOT>.5807E-4</MEAN_MOTION_DOT><MEAN_MOTION_DDOT>0</MEAN_MOTION_DDOT></tleParameters></data></segment></body></omm>
<omm id="CCSDS_OMM_VERS" version="2.0">
<header><CREATION_DATE/><ORIGINATOR/></header><body><segment><metadata><OBJECT_NAME>ORBCOMM FM34</OBJECT_NAME><OBJECT_ID>1999-065G</OBJECT_ID><CENTER_NAME>EARTH</CENTER_NAME><REF_FRAME>TEME</REF_FRAME><TIME_SYSTEM>UTC</TIME_SYSTEM><MEAN_ELEMENT_THEORY>SGP4</MEAN_ELEMENT_THEORY></metadata><data><meanElements><EPOCH>2024-11-04T16:15:36.596160</EPOCH><MEAN_MOTION>14.36117659</MEAN_MOTION><ECCENTRICITY>.00042</ECCENTRICITY><INCLINATION>45.0379</INCLINATION><RA_OF_ASC_NODE>77.8927</RA_OF_ASC_NODE><ARG_OF_PERICENTER>276.0957</ARG_OF_PERICENTER><MEAN_ANOMALY>83.9412</MEAN_ANOMALY></meanElements><tleParameters><EPHEMERIS_TYPE>0</EPHEMERIS_TYPE><CLASSIFICATION_TYPE>U</CLASSIFICATION_TYPE><NORAD_CAT_ID>25986</NORAD_CAT_ID><ELEMENT_SET_NO>999</ELEMENT_SET_NO><REV_AT_EPOCH>30261</REV_AT_EPOCH><BSTAR>.19533E-2</BSTAR><MEAN_MOTION_DOT>.5604E-4</MEAN_MOTION_DOT><MEAN_MOTION_DDOT>0</MEAN_MOTION_DDOT></tleParameters></data></segment></body></omm>
<omm id="CCSDS_OMM_VERS" version="2.0">
<header><CREATION_DATE/><ORIGINATOR/></header><body><segment><metadata><OBJECT_NAME>ORBCOMM FM38</OBJECT_NAME><OBJECT_ID>2008-031A</OBJECT_ID><CENTER_NAME>EARTH</CENTER_NAME><REF_FRAME>TEME</REF_FRAME><TIME_SYSTEM>UTC</TIME_SYSTEM><MEAN_ELEMENT_THEORY>SGP4</MEAN_ELEMENT_THEORY></metadata><data><meanElements><EPOCH>2024-11-05T05:01:56.851392</EPOCH><MEAN_MOTION>14.79375445</MEAN_MOTION><ECCENTRICITY>.0004873</ECCENTRICITY><INCLINATION>48.4410</INCLINATION><RA_OF_ASC_NODE>301.2300</RA_OF_ASC_NODE><ARG_OF_PERICENTER>155.7052</ARG_OF_PERICENTER><MEAN_ANOMALY>204.4093</MEAN_ANOMALY></meanElements><tleParameters><EPHEMERIS_TYPE>0</EPHEMERIS_TYPE><CLASSIFICATION_TYPE>U</CLASSIFICATION_TYPE><NORAD_CAT_ID>33060</NORAD_CAT_ID><ELEMENT_SET_NO>999</ELEMENT_SET_NO><REV_AT_EPOCH>88155</REV_AT_EPOCH><BSTAR>.11111E-2</BSTAR><MEAN_MOTION_DOT>.8172E-4</MEAN_MOTION_DOT><MEAN_MOTION_DDOT>0</MEAN_MOTION_DDOT></tleParameters></data></segment></body></omm>
<omm id="CCSDS_OMM_VERS" version="2.0">
<header><CREATION_DATE/><ORIGINATOR/></header><body><segment><metadata><OBJECT_NAME>ORBCOMM FM41</OBJECT_NAME><OBJECT_ID>2008-031B</OBJECT_ID><CENTER_NAME>EARTH</CENTER_NAME><REF_FRAME>TEME</REF_FRAME><TIME_SYSTEM>UTC</TIME_SYSTEM><MEAN_ELEMENT_THEORY>SGP4</MEAN_ELEMENT_THEORY></metadata><data><meanElements><EPOCH>2024-11-05T02:26:23.667648</EPOCH><MEAN_MOTION>14.79037473</MEAN_MOTION><ECCENTRICITY>.000398</ECCENTRICITY><INCLINATION>48.4438</INCLINATION><RA_OF_ASC_NODE>308.8064</RA_OF_ASC_NODE><ARG_OF_PERICENTER>139.2614</ARG_OF_PERICENTER><MEAN_ANOMALY>296.8880</MEAN_ANOMALY></meanElements><tleParameters><EPHEMERIS_TYPE>0</EPHEMERIS_TYPE><CLASSIFICATION_TYPE>U</CLASSIFICATION_TYPE><NORAD_CAT_ID>33061</NORAD_CAT_ID><ELEMENT_SET_NO>999</ELEMENT_SET_NO><REV_AT_EPOCH>88148</REV_AT_EPOCH><BSTAR>.97392E-3</BSTAR><MEAN_MOTION_DOT>.7077E-4</MEAN_MOTION_DOT><MEAN_MOTION_DDOT>0</MEAN_MOTION_DDOT></tleParameters></data></segment></body></omm>
<omm id="CCSDS_OMM_VERS" version="2.0">
<header><CREATION_DATE/><ORIGINATOR/></header><body><segment><metadata><OBJECT_NAME>ORBCOMM FM29</OBJECT_NAME><OBJECT_ID>2008-031C</OBJECT_ID><CENTER_NAME>EARTH</CENTER_NAME><REF_FRAME>TEME</REF_FRAME><TIME_SYSTEM>UTC</TIME_SYSTEM><MEAN_ELEMENT_THEORY>SGP4</MEAN_ELEMENT_THEORY></metadata><data><meanElements><EPOCH>2024-11-05T09:02:48.141312</EPOCH><MEAN_MOTION>14.79053457</MEAN_MOTION><ECCENTRICITY>.0005711</ECCENTRICITY><INCLINATION>48.4394</INCLINATION><RA_OF_ASC_NODE>315.5092</RA_OF_ASC_NODE><ARG_OF_PERICENTER>139.8559</ARG_OF_PERICENTER><MEAN_ANOMALY>359.1483</MEAN_ANOMALY></meanElements><tleParameters><EPHEMERIS_TYPE>0</EPHEMERIS_TYPE><CLASSIFICATION_TYPE>U</CLASSIFICATION_TYPE><NORAD_CAT_ID>33062</NORAD_CAT_ID><ELEMENT_SET_NO>999</ELEMENT_SET_NO><REV_AT_EPOCH>88138</REV_AT_EPOCH><BSTAR>.11535E-2</BSTAR><MEAN_MOTION_DOT>.8427E-4</MEAN_MOTION_DOT><MEAN_MOTION_DDOT>0</MEAN_MOTION_DDOT></tleParameters></data></segment></body></omm>
<omm id="CCSDS_OMM_VERS" version="2.0">
<header><CREATION_DATE/><ORIGINATOR/></header><body><segment><metadata><OBJECT_NAME>ORBCOMM FM39</OBJECT_NAME><OBJECT_ID>2008-031D</OBJECT_ID><CENTER_NAME>EARTH</CENTER_NAME><REF_FRAME>TEME</REF_FRAME><TIME_SYSTEM>UTC</TIME_SYSTEM><MEAN_ELEMENT_THEORY>SGP4</MEAN_ELEMENT_THEORY></metadata><data><meanElements><EPOCH>2024-11-05T10:45:51.995808</EPOCH><MEAN_MOTION>14.77841050</MEAN_MOTION><ECCENTRICITY>.0006523</ECCENTRICITY><INCLINATION>48.4405</INCLINATION><RA_OF_ASC_NODE>337.1640</RA_OF_ASC_NODE><ARG_OF_PERICENTER>113.4846</ARG_OF_PERICENTER><MEAN_ANOMALY>246.6755</MEAN_ANOMALY></meanElements><tleParameters><EPHEMERIS_TYPE>0</EPHEMERIS_TYPE><CLASSIFICATION_TYPE>U</CLASSIFICATION_TYPE><NORAD_CAT_ID>33063</NORAD_CAT_ID><ELEMENT_SET_NO>999</ELEMENT_SET_NO><REV_AT_EPOCH>88110</REV_AT_EPOCH><BSTAR>.97614E-3</BSTAR><MEAN_MOTION_DOT>.6892E-4</MEAN_MOTION_DOT><MEAN_MOTION_DDOT>0</MEAN_MOTION_DDOT></tleParameters></data></segment></body></omm>

</ndm>
